{
  "type": "FeatureCollection",
  "_comment": "APPROXIMATE overlay sub-areas, hand-digitized from the City of Sausalito Measure J overlay-site map (De Novo Planning Group, 2025) for parcels where the Housing Opportunity Overlay covers only part of the assessor parcel. Each polygon is anchored to the real parcel corners (from measure_j.geojson) and sized to the city's stated acreage, but the boundaries are estimates, not survey data. APNs listed here override the full parcel in measure_j.geojson.",
  "features": [
    {
      "type": "Feature",
      "properties": {
        "Parcel": "06314015",
        "Site": "303",
        "approximate": true,
        "note": "Approx. 3-acre overlay portion of 1 & 3 Harbor Dr (full parcel is 6.25 ac)"
      },
      "geometry": {
        "type": "Polygon",
        "coordinates": [[
          [-122.501871, 37.868033],
          [-122.500571, 37.869028],
          [-122.499954, 37.868572],
          [-122.501329, 37.867519],
          [-122.501871, 37.868033]
        ]]
      }
    },
    {
      "type": "Feature",
      "properties": {
        "Parcel": "06315201",
        "Site": "402",
        "approximate": true,
        "note": "Approx. 1-acre overlay portion (paved/parking area) of 2680 Bridgeway Blvd (full parcel is 2.26 ac)"
      },
      "geometry": {
        "type": "Polygon",
        "coordinates": [[
          [-122.501692, 37.869459],
          [-122.502099, 37.869145],
          [-122.502775, 37.869951],
          [-122.502446, 37.870077],
          [-122.501692, 37.869459]
        ]]
      }
    }
  ]
}
