{"type": "FeatureCollection", "features": [{"type": "Feature", "id": 2374477, "geometry": {"type": "Polygon", "coordinates": [[[-122.500257014806, 37.8688539789462], [-122.500174660756, 37.868787910443], [-122.499337100273, 37.8681160903825], [-122.499361849566, 37.8680966545095], [-122.499639078057, 37.8678789221704], [-122.499669545681, 37.8678573750304], [-122.49966978563, 37.867857208738], [-122.499670180906, 37.8678569001182], [-122.500787144095, 37.8670047221211], [-122.501870909015, 37.8680331100127], [-122.501383865682, 37.8684069353112], [-122.501344688993, 37.8684366743397], [-122.501193865625, 37.8685531106761], [-122.500927870537, 37.8687573130394], [-122.500570566366, 37.8690284445295], [-122.500559359124, 37.8690367638728], [-122.500546062331, 37.8690466462712], [-122.500520758669, 37.8690655510262], [-122.500257014806, 37.8688539789462]]]}, "properties": {"OBJECTID": 2374477, "Parcel": "06314015", "Prop_ID": "063-140-15", "GlobalID": "d486632b-d122-4e7b-85e1-563b21211dbb", "Shape__Area": 273819.6611328125, "Shape__Length": 2097.7518211540378}}, {"type": "Feature", "id": 2386288, "geometry": {"type": "Polygon", "coordinates": [[[-122.502539847096, 37.8688054973992], [-122.502656269443, 37.8689652133966], [-122.502657190241, 37.8689664730621], [-122.502657588199, 37.8689671062074], [-122.502917654491, 37.8693805193794], [-122.502918343397, 37.8693816117377], [-122.502918866554, 37.8693826708579], [-122.503132455877, 37.8698143026454], [-122.502573125118, 37.8699869761097], [-122.502446117395, 37.8700766074278], [-122.501691915727, 37.8694587766246], [-122.502539847096, 37.8688054973992]]]}, "properties": {"OBJECTID": 2386288, "Parcel": "06315201", "Prop_ID": "063-152-01", "GlobalID": "83f6dbe3-8b07-45d3-8a13-f3a3b23d93ef", "Shape__Area": 98973.677734375, "Shape__Length": 1282.5746701997577}}, {"type": "Feature", "id": 2392179, "geometry": {"type": "Polygon", "coordinates": [[[-122.502071552286, 37.868224925162], [-122.501593990551, 37.8685806373146], [-122.501417756701, 37.8684349577495], [-122.501383865682, 37.8684069353112], [-122.501870909015, 37.8680331100127], [-122.501902704026, 37.8680635066418], [-122.502071552286, 37.868224925162]]]}, "properties": {"OBJECTID": 2392179, "Parcel": "06314018", "Prop_ID": "063-140-18", "GlobalID": "e63e33c6-0d91-4eb7-b099-c3d013d23690", "Shape__Area": 17139.32421875, "Shape__Length": 563.211360197092}}, {"type": "Feature", "id": 2403800, "geometry": {"type": "Polygon", "coordinates": [[[-122.502071552286, 37.868224925162], [-122.502331730209, 37.8684997053082], [-122.50178335049, 37.8689245252174], [-122.501905633689, 37.8690221626377], [-122.501839424287, 37.8690747657103], [-122.501227739139, 37.868580484555], [-122.501193865625, 37.8685531106761], [-122.501344688993, 37.8684366743397], [-122.501383865682, 37.8684069353112], [-122.501417756701, 37.8684349577495], [-122.501593990551, 37.8685806373146], [-122.502071552286, 37.868224925162]]]}, "properties": {"OBJECTID": 2403800, "Parcel": "06314021", "Prop_ID": "063-140-21", "GlobalID": "51e55188-b16c-456f-8519-d3eba57ca3ac", "Shape__Area": 40446.3359375, "Shape__Length": 1042.8963453438887}}, {"type": "Feature", "id": 2422936, "geometry": {"type": "Polygon", "coordinates": [[[-122.503285870586, 37.8683339102651], [-122.502861842898, 37.8686120710588], [-122.502793032939, 37.8685276861579], [-122.502854726156, 37.8684866052078], [-122.502768196533, 37.8684047020218], [-122.502841638113, 37.8683566216984], [-122.503112619011, 37.8681792059721], [-122.503285870586, 37.8683339102651]]]}, "properties": {"OBJECTID": 2422936, "Parcel": "06315101", "Prop_ID": "063-151-01", "GlobalID": "56781033-3507-4384-832f-2b63bcc13065", "Shape__Area": 10725.7119140625, "Shape__Length": 461.88975233362595}}, {"type": "Feature", "id": 2433677, "geometry": {"type": "Polygon", "coordinates": [[[-122.499601160538, 37.8661633921826], [-122.499565835525, 37.866129765141], [-122.499576908335, 37.866121110185], [-122.499737226509, 37.8659957726933], [-122.499771894157, 37.8660294739108], [-122.499797227957, 37.8660540998151], [-122.49980690024, 37.8660634983456], [-122.500449647503, 37.8666880109912], [-122.500475376169, 37.8667122965943], [-122.500669249156, 37.8668953107988], [-122.500693082307, 37.8669178079324], [-122.500595695901, 37.8669940472031], [-122.500590799829, 37.8669973522064], [-122.500590688258, 37.8669974307048], [-122.500590055691, 37.8669977929193], [-122.500585000837, 37.8670006905387], [-122.500584480206, 37.8670009877674], [-122.500583009798, 37.8670016886376], [-122.500578907187, 37.8670036418152], [-122.500577908098, 37.8670041138872], [-122.500576563634, 37.8670046368763], [-122.500572434624, 37.8670062435146], [-122.500571016904, 37.8670067902768], [-122.500570041607, 37.8670070907054], [-122.500565447026, 37.8670085069565], [-122.500563857273, 37.8670089980524], [-122.500563360191, 37.8670091146291], [-122.500562744399, 37.8670092557495], [-122.500556587082, 37.8670106894748], [-122.500556491099, 37.8670107136332], [-122.500550299272, 37.8670117108301], [-122.500549563433, 37.8670118269472], [-122.500548963592, 37.8670119272403], [-122.500547228487, 37.867012087332], [-122.500542482424, 37.8670125237723], [-122.500541342692, 37.8670126287096], [-122.500539786246, 37.8670126686088], [-122.500535253026, 37.8670127769864], [-122.500533679413, 37.8670128126701], [-122.500532586808, 37.8670127681001], [-122.500527766435, 37.8670125568895], [-122.500526036376, 37.8670124825667], [-122.500525471935, 37.8670124200323], [-122.500524787812, 37.8670123460073], [-122.500518464719, 37.8670116375328], [-122.50051598716, 37.8670112469179], [-122.500514466571, 37.8670109302098], [-122.500510082277, 37.8670100266471], [-122.500508613189, 37.8670097225851], [-122.500507599373, 37.8670094378446], [-122.500502999967, 37.8670081458778], [-122.500501442008, 37.8670077081324], [-122.500500931105, 37.8670075230198], [-122.5005002767, 37.8670072862636], [-122.500494530677, 37.8670052116054], [-122.50048903557, 37.867002745151], [-122.500488425647, 37.8670024715903], [-122.500487948106, 37.8670022588743], [-122.500486575068, 37.8670015115649], [-122.500482611549, 37.8669993481131], [-122.500481723191, 37.8669988674745], [-122.500480565818, 37.8669981074972], [-122.500477059123, 37.8669958101259], [-122.500475913357, 37.8669950589645], [-122.500475164372, 37.8669944768246], [-122.500471744064, 37.8669917994583], [-122.500470565273, 37.8669908776164], [-122.50047020377, 37.8669905412631], [-122.500469754611, 37.8669901162691], [-122.500465707712, 37.8669863364617], [-122.500298734664, 37.8668273984571], [-122.500271769387, 37.8668017323079], [-122.499636602253, 37.8661971298948], [-122.499626480242, 37.8661874956286], [-122.499601160538, 37.8661633921826]]]}, "properties": {"OBJECTID": 2433677, "Parcel": "06313001", "Prop_ID": "063-130-01", "GlobalID": "a4e11bc6-f43c-4293-ba6a-ce570cebc6ee", "Shape__Area": 29033.3583984375, "Shape__Length": 991.7076087329934}}, {"type": "Feature", "id": 2436452, "geometry": {"type": "Polygon", "coordinates": [[[-122.502429956483, 37.8686141848333], [-122.501905633689, 37.8690221626377], [-122.50178335049, 37.8689245252174], [-122.502331730209, 37.8684997053082], [-122.502429956483, 37.8686141848333]]]}, "properties": {"OBJECTID": 2436452, "Parcel": "06314020", "Prop_ID": "063-140-20", "GlobalID": "9e67b0a8-88ad-44bc-a688-41fb3e6ad66d", "Shape__Area": 10804.509765625, "Shape__Length": 533.9138758336248}}, {"type": "Feature", "id": 2458141, "geometry": {"type": "Polygon", "coordinates": [[[-122.484096809103, 37.8591250330975], [-122.483947054742, 37.859299578914], [-122.483777162139, 37.859211411791], [-122.483918090008, 37.859044098481], [-122.484096809103, 37.8591250330975]]]}, "properties": {"OBJECTID": 2458141, "Parcel": "06503407", "Prop_ID": "065-034-07", "GlobalID": "86db3c7c-b25c-400f-b42a-31e2873f6418", "Shape__Area": 4423.7900390625, "Shape__Length": 268.1648401754001}}, {"type": "Feature", "id": 2458154, "geometry": {"type": "Polygon", "coordinates": [[[-122.486047356009, 37.86000797528], [-122.486437620687, 37.860189302454], [-122.486186795021, 37.8604855507371], [-122.485812882748, 37.8602838719808], [-122.486047356009, 37.86000797528]]]}, "properties": {"OBJECTID": 2458154, "Parcel": "06503201", "Prop_ID": "065-032-01", "GlobalID": "b3ae17a7-b187-4c98-93a7-98c6fc3ca3ce", "Shape__Area": 16374.83203125, "Shape__Length": 512.2034307563731}}, {"type": "Feature", "id": 2458276, "geometry": {"type": "Polygon", "coordinates": [[[-122.483366894529, 37.8597118019078], [-122.483627515033, 37.859400844222], [-122.484019857783, 37.8596136794763], [-122.484300866926, 37.8597661171945], [-122.484051718107, 37.8600768700027], [-122.483461981416, 37.8597624906072], [-122.483366894529, 37.8597118019078]]]}, "properties": {"OBJECTID": 2458276, "Parcel": "06503806", "Prop_ID": "065-038-06", "GlobalID": "1447f4c3-f759-449b-bde5-7502b19c63ba", "Shape__Area": 31974.90234375, "Shape__Length": 743.80207748782}}, {"type": "Feature", "id": 2458356, "geometry": {"type": "Polygon", "coordinates": [[[-122.483723433388, 37.8589569739434], [-122.483601395986, 37.8591006133289], [-122.483017711084, 37.8587941107705], [-122.483041675686, 37.8587659041861], [-122.483285584759, 37.8588342625578], [-122.483723433388, 37.8589569739434]]]}, "properties": {"OBJECTID": 2458356, "Parcel": "06503701", "Prop_ID": "065-037-01", "GlobalID": "d22596cf-a38c-45fa-b23e-8650e390eef9", "Shape__Area": 7624.15625, "Shape__Length": 486.31581319900795}}, {"type": "Feature", "id": 2458370, "geometry": {"type": "Polygon", "coordinates": [[[-122.486564642885, 37.8596841160243], [-122.486777803623, 37.859797480144], [-122.486717741425, 37.8598666221279], [-122.486498153101, 37.8597664524124], [-122.486564642885, 37.8596841160243]]]}, "properties": {"OBJECTID": 2458370, "Parcel": "06505110", "Prop_ID": "065-051-10", "GlobalID": "05b6223b-d72e-4dea-8a10-f6b54c594e22", "Shape__Area": 2432.88671875, "Shape__Length": 213.406724421162}}, {"type": "Feature", "id": 2458511, "geometry": {"type": "Polygon", "coordinates": [[[-122.503144160276, 37.8698372394558], [-122.503200421298, 37.8699744979586], [-122.502560410897, 37.8702041484665], [-122.502538717749, 37.8702114967824], [-122.502413148401, 37.8700992071214], [-122.502446117395, 37.8700766074278], [-122.502573125118, 37.8699869761097], [-122.503132455877, 37.8698143026454], [-122.503144160276, 37.8698372394558]]]}, "properties": {"OBJECTID": 2458511, "Parcel": "06316204", "Prop_ID": "063-162-04", "GlobalID": "2dce76da-983b-4497-ae5c-4f2961c3912e", "Shape__Area": 14416.1708984375, "Shape__Length": 560.7232464096222}}, {"type": "Feature", "id": 2460591, "geometry": {"type": "Polygon", "coordinates": [[[-122.486619660848, 37.8602705154008], [-122.486733702522, 37.860132378982], [-122.487075855401, 37.8602878050591], [-122.486958596804, 37.8604284789461], [-122.486910862967, 37.8604857511293], [-122.486691240674, 37.8607492370306], [-122.486530517304, 37.860665182408], [-122.486364314117, 37.860575361596], [-122.486619660848, 37.8602705154008]]]}, "properties": {"OBJECTID": 2460591, "Parcel": "06408707", "Prop_ID": "064-087-07", "GlobalID": "46c3a804-52ac-48e0-9b93-351828e95a5a", "Shape__Area": 22425.5478515625, "Shape__Length": 622.2520017994036}}, {"type": "Feature", "id": 2462676, "geometry": {"type": "Polygon", "coordinates": [[[-122.503490521805, 37.8685215723182], [-122.503515325876, 37.8685475538284], [-122.503628087054, 37.8686794143971], [-122.503725865109, 37.8688182526386], [-122.503229329266, 37.8691488057857], [-122.503022494067, 37.8688285188206], [-122.503490521805, 37.8685215723182]]]}, "properties": {"OBJECTID": 2462676, "Parcel": "06315105", "Prop_ID": "063-151-05", "GlobalID": "42300e67-a9e9-49df-aad9-840bacf60e26", "Shape__Area": 23255.271484375, "Shape__Length": 621.2939046286353}}, {"type": "Feature", "id": 2462692, "geometry": {"type": "Polygon", "coordinates": [[[-122.484578040447, 37.8612256553102], [-122.485341635935, 37.8603096270682], [-122.485556749163, 37.8604228929383], [-122.486030637006, 37.8606724100362], [-122.485731207834, 37.8610314053276], [-122.485267367903, 37.8615875044523], [-122.484578040447, 37.8612256553102]]]}, "properties": {"OBJECTID": 2462692, "Parcel": "06503101", "Prop_ID": "065-031-01", "GlobalID": "482007f2-600a-4d10-ab7f-0823ea98e914", "Shape__Area": 95403.328125, "Shape__Length": 1276.7303097512315}}]}